{"fetched_at":"2026-03-29T02:12:04Z","count":15717,"tles":[{"name":"GSAT0218 (GALILEO 22)","line1":"1 43058U 17079D   26085.45298486  .00000000  00000+0  00000+0 0  9999","line2":"2 43058  55.0993 223.7765 0002274 289.2872  70.6427  1.70474511 51606","category":"GPS"}]}